{
    "links": {
        "self": "http://www.neowsapp.com/rest/v1/neo/3297382?api_key=iIulBulltgU6a56xZRHN4H3l9WmuAYTsLGpBGhQ2"
    },
    "id": "3297382",
    "neo_reference_id": "3297382",
    "name": "(2005 VA)",
    "designation": "2005 VA",
    "nasa_jpl_url": "http://ssd.jpl.nasa.gov/sbdb.cgi?sstr=3297382",
    "absolute_magnitude_h": 23.0,
    "estimated_diameter": {
        "kilometers": {
            "estimated_diameter_min": 0.0667659413,
            "estimated_diameter_max": 0.1492931834
        },
        "meters": {
            "estimated_diameter_min": 66.7659413495,
            "estimated_diameter_max": 149.2931834393
        },
        "miles": {
            "estimated_diameter_min": 0.0414864197,
            "estimated_diameter_max": 0.0927664547
        },
        "feet": {
            "estimated_diameter_min": 219.0483710172,
            "estimated_diameter_max": 489.807047955
        }
    },
    "is_potentially_hazardous_asteroid": false,
    "close_approach_data": [
        {
            "close_approach_date": "2005-11-03",
            "close_approach_date_full": "2005-Nov-03 03:44",
            "epoch_date_close_approach": 1130989440000,
            "relative_velocity": {
                "kilometers_per_second": "7.7012283355",
                "kilometers_per_hour": "27724.4220076967",
                "miles_per_hour": "17226.8776636158"
            },
            "miss_distance": {
                "astronomical": "0.1035967595",
                "lunar": "40.2991394455",
                "kilometers": "15497854.560102265",
                "miles": "9629920.278310657"
            },
            "orbiting_body": "Earth"
        }
    ],
    "orbital_data": {
        "orbit_id": "13",
        "orbit_determination_date": "2017-04-06 09:10:00",
        "first_observation_date": "2005-11-01",
        "last_observation_date": "2005-12-25",
        "data_arc_in_days": 54,
        "observations_used": 50,
        "orbit_uncertainty": "6",
        "minimum_orbit_intersection": ".0726923",
        "jupiter_tisserand_invariant": "3.236",
        "epoch_osculation": "2459000.5",
        "eccentricity": ".5685687039359071",
        "semi_major_axis": "2.475028254623148",
        "inclination": "1.824579097708663",
        "ascending_node_longitude": "217.5987807193757",
        "orbital_period": "1422.226179442169",
        "perihelion_distance": "1.067804647687314",
        "perihelion_argument": "169.0638922287108",
        "aphelion_distance": "3.882251861558981",
        "perihelion_time": "2459354.165551492397",
        "mean_anomaly": "270.4786563644886",
        "mean_motion": ".2531242957018276",
        "equinox": "J2000",
        "orbit_class": {
            "orbit_class_type": "AMO",
            "orbit_class_description": "Near-Earth asteroid orbits similar to that of 1221 Amor",
            "orbit_class_range": "1.017 AU < q (perihelion) < 1.3 AU"
        }
    },
    "is_sentry_object": false
}